Name,Email,DOB,Address,PAN,City,Country
Wynne U. Dickson,imperdiet@atarcu.ca,03-06-2019,8528 Primis St.,4.56E+15,Gaasbeek,French Southern Territories
Jaden Z. Joyce,velit.Aliquam@Nullamfeugiatplacerat.com,11-09-2019,"P.O. Box 271, 6986 Purus. St.",402 40071 54851 272,Cockburn,Qatar
Mark Manning,augue.malesuada.malesuada@massaSuspendisse.com,15-10-2018,"6137 Lobortis, Avenue",4.92E+12,Tsiigehtchic,Peru
Jelani Z. Cain,pretium@Donecnon.ca,08-07-2019,"9010 Ac, Street",3713 494499 38267,Tuscaloosa,Saint Lucia
Eagan Hess,arcu.Morbi.sit@sitametdapibus.com,11-11-2018,482-5952 Eros Avenue,424 20080 20882 083,Lairg,Bangladesh
Valentine Francis,semper@tellusnonmagna.ca,15-06-2020,"1486 At, St.",4.56E+12,Montigny-lès-Metz,Senegal
Cole A. Henderson,Nullam.vitae.diam@libero.org,24-06-2020,Ap #242-506 Consequat St.,646 95550 57471 876,Besançon,Tunisia
Eliana C. Gonzales,nec.cursus@dis.com,16-10-2018,9546 Mauris Avenue,4844 7969 8092 2848,Burin,Lebanon
Avye Carver,mollis.nec@vel.net,20-07-2020,"Ap #474-3667 Ac, Road",6.48E+15,South Bend,Guyana
Yeo Church,arcu.eu@Suspendissetristique.edu,22-07-2019,115-1496 Ipsum Avenue,4.53E+12,Bollnäs,Ireland
Ralph Sanford,Maecenas.malesuada@purusaccumsaninterdum.org,01-07-2019,"P.O. Box 695, 9673 Turpis Street",4026 7055 5101 5007,Jemeppe-sur-Meuse,Hungary
Hammett M. Horton,Aliquam.fringilla@elementumsemvitae.org,14-01-2020,6039 Sem Street,6.48E+15,Frankfort,Equatorial Guinea
Ebony E. Curry,vitae@enimSed.net,14-08-2018,1003 Quam. Road,453284 221340 3680,Beverlo,Afghanistan
Zenaida Doyle,at.libero@egetvolutpatornare.ca,08-01-2020,"P.O. Box 751, 924 Elit, Ave",3414 584887 91474,Dos Hermanas,Taiwan
Laith U. Moran,Nullam.ut.nisi@non.ca,01-12-2019,"P.O. Box 623, 8611 Sed Rd.",417500 666374 9487,Nadiad,Jersey
Stacy V. Montgomery,Aliquam.erat@miloremvehicula.ca,08-07-2020,391-7598 Est Rd.,646227 031737 2305,Viano,Equatorial Guinea
Georgia B. Mclaughlin,adipiscing.Mauris@imperdieteratnonummy.ca,09-07-2020,Ap #532-9589 Mattis Ave,4.02E+15,Pak Pattan,Swaziland
Arsenio O. Holman,aliquet@laciniaat.edu,26-09-2019,4054 Suspendisse Rd.,644383 692065 4190,Neerglabbeek,Romania
Lydia Snider,et.magnis.dis@nuncInat.co.uk,12-03-2019,803-4337 Nibh. St.,484493 811715 2218,Aubagne,Croatia
Bryar Copeland,auctor@acorciUt.ca,23-06-2019,"P.O. Box 804, 2105 Nec Av.",3710 155807 82661,North Las Vegas,Andorra
Gloria G. Farmer,posuere@et.ca,09-12-2019,"P.O. Box 394, 8910 Phasellus Rd.",4.84E+15,Harlow,Chad
Kieran B. Valenzuela,lectus.rutrum@Duisvolutpatnunc.org,11-09-2019,"P.O. Box 221, 657 Nam Road",6575 9724 4106 8238,Exeter,Finland
Liberty W. Barker,nibh.dolor.nonummy@amet.net,07-04-2020,8890 Sed St.,450 84903 06267 453,Dover,Guatemala
Renee Carroll,faucibus.Morbi.vehicula@sapienmolestie.net,26-03-2020,"P.O. Box 886, 2582 Nec Rd.",3734 074962 99799,Bissegem,Tajikistan
Tarik U. Flynn,congue.turpis@Donecporttitor.ca,07-07-2020,5779 Pretium St.,3425 561024 06269,Hampstead,Namibia
Victor M. Montoya,tempus.mauris.erat@duiquisaccumsan.ca,13-09-2019,5489 Hymenaeos. Ave,4.72E+15,Cartagena,British Indian Ocean Territory
Fatima B. Hatfield,vehicula.et.rutrum@lacuspedesagittis.edu,12-10-2019,Ap #915-8415 Et Street,4.93E+12,Spaniard's Bay,Sierra Leone
Tara Velazquez,lectus@vel.net,27-09-2019,Ap #991-6956 Ac St.,3718 451001 82418,Nijkerk,Tonga
Dean Y. White,Suspendisse.eleifend@Integersem.com,29-02-2020,848-1126 Lorem Rd.,647 15320 31527 053,Bettiah,American Samoa
Solomon Duran,odio@PraesentluctusCurabitur.ca,19-12-2019,"P.O. Box 449, 6517 Lobortis St.",649308 4356850326,Magdeburg,Turkey
Iola V. Hebert,tellus.Nunc@nonvestibulumnec.com,22-10-2019,Ap #974-4359 Erat Rd.,4.53E+12,Grey County,Wallis and Futuna
Cassady P. Newman,a.sollicitudin.orci@Nunclectus.co.uk,17-04-2019,1339 Elit Street,402 63955 83827 569,Knighton,France
Fletcher N. Lamb,ipsum.dolor.sit@eratvolutpat.edu,18-04-2019,7487 Proin Av.,647767 2313084201,Bahawalnagar,Mozambique
Karyn Guerra,Integer.urna.Vivamus@quispedeSuspendisse.com,29-01-2020,"P.O. Box 354, 743 Ac Avenue",4.02E+12,Rae-Edzo,Austria
Heidi Boone,tincidunt.nunc@tincidunt.com,05-04-2019,Ap #324-5739 Aliquam Ave,3.78E+14,Corte Brugnatella,Uruguay
Keegan Caldwell,urna.Nunc@blanditenim.org,15-07-2020,5329 Semper. Ave,6011 1615 1618 9879,Avin,Australia
Deborah U. Brock,ac.eleifend.vitae@molestiedapibus.edu,01-04-2019,Ap #353-5567 Vivamus St.,4.49E+12,Rivière-du-Loup,Bosnia and Herzegovina
Harper M. Small,laoreet@pretium.net,22-03-2019,"P.O. Box 691, 4679 Ornare, Ave",4.92E+12,Perwez,Svalbard and Jan Mayen Islands
Heather M. Cantrell,orci.luctus.et@NullafacilisiSed.org,15-05-2019,"Ap #557-8156 Risus, Av.",491393 2698164300,Waitakere,"Virgin Islands, United States"
Brian Mcdowell,at.lacus@Donec.org,23-08-2018,Ap #664-3158 Auctor Ave,3780 799330 78501,Ramsel,Djibouti
Holly Jimenez,volutpat.ornare.facilisis@ametultriciessem.ca,21-07-2020,639-6357 Sagittis St.,471605 781516 9716,Lissewege,Namibia
August Dyer,sit.amet.ultricies@conubianostra.net,17-06-2020,8715 Ut Av.,6.45E+15,Acquedolci,Croatia
Tanner Richmond,sit.amet@nulla.co.uk,28-05-2020,Ap #496-214 Porta Street,649 85957 37629 837,Neuwied,Guyana
Preston Alvarado,sem@nonummyFusce.com,03-11-2019,"Ap #273-5496 Suscipit, Avenue",3795 929261 67049,Budaun,Holy See (Vatican City State)
Velma Mcdonald,mollis@tincidunt.ca,09-12-2018,4114 Ipsum St.,4.49E+12,Bangalore,Guinea-Bissau
Tyler R. Francis,nulla@faucibus.com,30-04-2020,Ap #126-5869 Lacinia. Rd.,4024 007 18 2823,Baie-D'Urfé,Turkmenistan
Joy H. Haynes,elit@lorem.co.uk,22-11-2018,"P.O. Box 702, 6401 Et St.",3.79E+14,Bad Dürkheim,Mexico
Buffy K. Matthews,magnis.dis.parturient@nulla.co.uk,25-05-2019,"619-8630 Tortor, Avenue",484426 4197935590,Batiscan,Timor-Leste
Clare R. Turner,leo.Cras@tellusimperdiet.org,05-01-2020,"P.O. Box 495, 3967 Auctor, Ave",4389 555 62 6301,Bal‰tre,Micronesia
Hamilton Edwards,et.magnis.dis@ametrisusDonec.org,03-09-2018,"P.O. Box 587, 472 In St.",491760 179068 4228,Provost,Zimbabwe
Rebecca H. Ramos,ut.aliquam@sempereratin.org,19-08-2019,840-2409 Libero Rd.,417 50099 51423 138,Miami,Bosnia and Herzegovina
Wyoming Gould,Sed.diam@magnanecquam.org,29-05-2020,794-950 Urna. St.,4735 111 12 7376,Tofield,Sri Lanka
Lenore H. Hurst,lobortis.Class.aptent@atlibero.co.uk,11-10-2019,2759 Odio Ave,6.48E+15,Challand-Saint-Victor,Turkmenistan
Leroy E. Morris,auctor.ullamcorper@Nuncmauris.net,10-02-2019,Ap #666-5747 Dapibus Rd.,3779 575676 04612,Gontrode,Romania
Ulysses P. Evans,mauris@maurisSuspendissealiquet.edu,07-06-2019,Ap #995-1827 Ut Av.,646179 7883415663,Veldegem,South Georgia and The South Sandwich Islands
Norman Weiss,et.euismod.et@Duisa.org,14-06-2019,"P.O. Box 826, 7720 Amet, Road",4.56E+15,Cañas,Sri Lanka
Gregory J. Whitfield,ante.dictum.mi@fermentumrisusat.net,30-09-2018,Ap #352-4275 Eget Road,4.02E+15,Sint-Gillis,Luxembourg
Bo D. Walton,justo.Praesent.luctus@urnasuscipitnonummy.com,22-12-2019,9224 Leo. Rd.,484 44610 20466 559,Edmonton,Cyprus
Colorado V. Chavez,tellus.justo.sit@vehicula.org,12-11-2019,173-3922 Ornare Av.,491732 703236 7873,Malderen,Benin
Carter E. Daniels,Cras.vehicula.aliquet@etarcu.edu,27-11-2018,554-8459 Justo Street,3.80E+14,Nil-Saint-Vincent-Saint-Martin,United States Minor Outlying Islands
Carol Y. Deleon,ridiculus.mus@pretiumetrutrum.com,25-02-2020,"Ap #548-379 Suscipit, Street",4.92E+15,Sant'Urbano,South Georgia and The South Sandwich Islands
Molly Mcknight,ante.dictum.mi@adipiscingenim.net,08-11-2019,105-6187 Primis St.,3478 204611 83355,Castel Guelfo di Bologna,Mauritania
Kirsten Dunlap,sed.facilisis.vitae@ornareelit.edu,16-07-2019,9320 Fermentum Ave,4.56E+12,Strona,Cayman Islands
Ulric G. Hester,molestie.Sed.id@Vivamuseuismod.ca,06-06-2020,"P.O. Box 195, 8166 Nibh. Ave",3.45E+14,Ajax,South Sudan
Cooper Dawson,sit@ametornare.edu,10-04-2020,Ap #162-226 Dignissim. Av.,450 81786 75120 730,Sassocorvaro,Kenya
Sarah Reynolds,Sed.molestie.Sed@netusetmalesuada.edu,28-06-2020,371-4626 Sed Av.,644093 5046453488,Villa Latina,Kazakhstan
Vera S. Sellers,lacus@sit.net,10-02-2020,Ap #434-9674 Nibh. Avenue,4.03E+15,Marentino,Cuba
Hiroko Matthews,sem@enimmi.org,31-12-2018,642-2519 Leo. Street,6.50E+15,Nieuwerkerken,Laos
Camille Gallegos,ligula@dis.net,11-07-2020,2869 Ligula. Rd.,601117 790139 0799,Cambridge Bay,Swaziland
Stacey Mendez,erat.Vivamus@tinciduntpede.edu,03-04-2020,964-9698 A Rd.,4.54E+15,Cochrane,Ecuador
Deirdre L. Medina,natoque@SedmolestieSed.edu,22-02-2019,140-9480 Enim. St.,3405 976311 45541,San Fele,Tonga
Lee U. Welch,Fusce@arcu.com,13-05-2020,"443-6154 Vulputate, St.",3789 770267 97350,Fraserburgh,Saint Vincent and The Grenadines
Paul M. Huff,sapien.molestie@faucibus.org,24-09-2019,Ap #641-5649 Donec Street,4.84E+15,Vilcún,Nigeria
Rajah Riley,sodales.purus@telluslorem.edu,10-04-2019,560-489 Ullamcorper Rd.,4.02E+15,Olcenengo,Portugal
Eagan Williamson,ipsum.Curabitur.consequat@aliquetmagnaa.org,05-07-2019,5549 Blandit Rd.,417 50025 02090 647,Desteldonk,Swaziland
Ariana Gross,egestas@risus.org,24-11-2019,4159 Facilisis Street,6493 8669 4001 1732,Monte San Savino,Japan
Hilda N. Fitzpatrick,primis.in.faucibus@miDuis.org,02-07-2020,"Ap #856-7340 A, St.",4.02E+12,Terzorio,Jamaica
Vielka E. Bruce,enim.Sed.nulla@maurisblandit.edu,22-11-2018,9447 Sed Ave,4508 4910 9795 8672,Tiegem,Sudan
Kirby O. Blackwell,tincidunt.Donec@dui.edu,08-12-2018,875-855 Dignissim Avenue,657167 729281 2378,Lincoln,Kuwait
Faith Y. Conrad,Etiam.gravida@convallisante.ca,14-09-2019,Ap #708-6382 Rutrum Street,644501 635583 3290,Robechies,Cocos (Keeling) Islands
Rebekah Kerr,pulvinar.arcu@leoCras.org,20-05-2019,"P.O. Box 741, 3477 Dictum. Rd.",3.72E+14,St. Andrews,French Polynesia
Ezra K. Hines,semper@egetipsum.com,22-10-2018,"P.O. Box 612, 7340 Non Street",4.91E+15,Patos,Belarus
James V. Mckee,aliquet@enimnonnisi.net,26-07-2019,589-1627 Sem Rd.,648906 1776563644,Licantén,Montserrat
Hyacinth C. French,mauris@luctusutpellentesque.net,10-08-2018,"P.O. Box 102, 6502 Erat. Ave",3475 233177 81394,Pontevedra,Kiribati
Noelle Farmer,dui.nec@nonfeugiat.edu,29-07-2018,4680 Donec St.,402 69946 16736 175,Portland,Iraq
Rebekah R. Sexton,tortor.nibh.sit@dictummagnaUt.com,15-10-2019,8274 Mi Av.,417500 720420 1012,Te Awamutu,Kazakhstan
Colorado Elliott,Morbi.accumsan.laoreet@semelit.co.uk,09-07-2019,"P.O. Box 126, 752 Venenatis Ave",491748 8475696473,Corvino San Quirico,Algeria
Vanna Roman,Sed@et.ca,18-09-2018,"Ap #861-3144 Vitae, Avenue",4.02E+12,Sannazzaro de' Burgondi,Cambodia
Gay D. Knapp,Quisque.fringilla.euismod@egestasAliquam.edu,13-07-2020,"P.O. Box 993, 1132 Molestie St.",4844 1324 9630 2632,Southwell,Zimbabwe
Farrah Rasmussen,ultrices@eu.com,21-10-2019,324-8898 Nunc Ave,484484 144890 7443,Innisfail,Malaysia
Lois W. Hopkins,vitae@laoreetposuere.org,26-12-2018,Ap #595-4999 Pharetra Avenue,402 40071 19113 347,Scanzano Jonico,Russian Federation
Kalia X. Colon,morbi@variusultrices.com,11-12-2018,7540 Interdum. St.,3461 062844 67899,Cañete,Christmas Island
Knox Mcmahon,congue.elit.sed@vitae.org,01-01-2019,875 Ante Road,659204 0539964616,Tregaron,Hong Kong
Aspen Sharp,sagittis.lobortis@erat.net,01-04-2019,Ap #316-9618 Morbi Road,4.92E+12,Solre-Saint-GŽry,Bahamas
Isabella Galloway,ullamcorper.viverra.Maecenas@nec.co.uk,11-11-2019,Ap #116-433 Gravida. Road,491787 089824 8992,Sperlinga,Eritrea
Brielle Sheppard,vitae.erat.vel@diamdictum.edu,04-06-2019,"P.O. Box 573, 4635 Ultrices Road",644923 7364507362,Lebach,Afghanistan
Ulysses E. Burke,erat@ipsum.com,01-01-2019,493-2417 Est Avenue,4.92E+15,Tulita,Sudan
Abel F. Albert,justo.sit@euneque.co.uk,15-09-2019,"P.O. Box 349, 3607 Morbi Av.",3.71E+14,Pemberton,Saint Pierre and Miquelon
Shad M. Deleon,risus@rhoncus.edu,10-02-2020,Ap #883-765 Auctor Street,3786 859340 18278,La Reina,Guatemala
Zena R. Michael,dolor.nonummy@rhoncus.co.uk,06-02-2019,985-7194 Fringilla. St.,6.45E+15,Bouwel,San Marino
